1 39497U 13076E   16003.01383008  .00000024  00000-0  10000-3 0  9992
2 39497  82.4842  28.4900 0018176 142.6726 217.5626 12.42671682 91587
